{
  "norad_id": 66185,
  "name": "STARLINK-35377",
  "history": [
    {
      "epoch": "2026-03-28T14:04:10.188192Z",
      "apogee_km": 475.9624739449364,
      "perigee_km": 474.38621233601407,
      "latitude_deg": 1.7639213242558748e-05,
      "longitude_deg": 120.66831283945501,
      "height_km": 475.86465846089385,
      "semi_major_axis_km": 6853.3113431404745,
      "eccentricity": 0.000115,
      "inclination_deg": 53.16,
      "raan_deg": 157.7153,
      "arg_perigee_deg": 74.6986,
      "mean_anomaly_deg": 285.4142,
      "mean_motion_rev_day": 15.3021364
    }
  ]
}